[{"OBJECT_NAME":"STARLINK-30598","OBJECT_ID":"2023-160E","EPOCH":"2026-03-09T02:01:36.543936","MEAN_MOTION":15.27576958,"ECCENTRICITY":4.243e-5,"INCLINATION":42.999,"RA_OF_ASC_NODE":81.2724,"ARG_OF_PERICENTER":309.5491,"MEAN_ANOMALY":50.5323,"EPHEMERIS_TYPE":0,"CLASSIFICATION_TYPE":"U","NORAD_CAT_ID":58079,"ELEMENT_SET_NO":999,"REV_AT_EPOCH":13285,"BSTAR":1.0999071e-5,"MEAN_MOTION_DOT":4.1e-7,"MEAN_MOTION_DDOT":0},{"OBJECT_NAME":"TITAN 4B R\/B","OBJECT_ID":"2005-016B","EPOCH":"2026-03-09T20:27:57.848832","MEAN_MOTION":15.42682045,"ECCENTRICITY":0.00616552,"INCLINATION":56.9964,"RA_OF_ASC_NODE":245.9411,"ARG_OF_PERICENTER":20.2929,"MEAN_ANOMALY":340.0555,"EPHEMERIS_TYPE":0,"CLASSIFICATION_TYPE":"U","NORAD_CAT_ID":28647,"ELEMENT_SET_NO":999,"REV_AT_EPOCH":37707,"BSTAR":0.00046483736,"MEAN_MOTION_DOT":0.0002164,"MEAN_MOTION_DDOT":0}]
